OBJECT_NAME,OBJECT_ID,EPOCH,MEAN_MOTION,ECCENTRICITY,INCLINATION,RA_OF_ASC_NODE,ARG_OF_PERICENTER,MEAN_ANOMALY,EPHEMERIS_TYPE,CLASSIFICATION_TYPE,NORAD_CAT_ID,ELEMENT_SET_NO,REV_AT_EPOCH,BSTAR,MEAN_MOTION_DOT,MEAN_MOTION_DDOT
CONNECTA IOT-4,2024-149BJ,2026-07-13T00:34:54.013728,15.43114556,.0005828,97.3802,278.7160,182.0354,178.0871,0,U,60524,999,10631,.34359E-3,.15132E-3,0
ORESAT0.5,2024-149BK,2026-07-12T18:09:39.487392,15.46046803,.0006019,97.3729,280.1642,172.7669,187.3668,0,U,60525,999,10642,.31439E-3,.15289E-3,0
DEIMOS,2024-149BL,2026-07-12T19:17:04.380288,15.45135168,.0005731,97.3787,280.3384,176.8884,183.2401,0,U,60526,999,10640,.3143E-3,.14813E-3,0
CUAVA-2,2024-149BM,2026-07-12T17:51:24.566112,15.36698332,.0006629,97.3730,275.3153,188.2996,171.8139,0,U,60527,999,10609,.24588E-3,.8738E-4,0
ERNST,2024-149BN,2026-07-11T00:34:31.362240,15.39824000,.00057878,97.3807,275.9318,194.1304,165.9781,0,U,60528,999,10594,.21573753E-3,.8478E-4,0
TORO,2024-149BQ,2026-07-12T23:35:29.498784,14.96514274,.0001213,97.6781,268.1695,93.8681,266.2680,0,U,60530,999,10381,.48872E-4,.498E-5,0
HYPSO-2,2024-149BR,2026-07-12T23:16:27.465312,14.98928139,.0001935,97.6844,269.8551,100.8056,259.3385,0,U,60531,999,10391,.16868E-3,.1981E-4,0
LEMU NGE,2024-149BS,2026-07-12T18:04:01.134624,14.95054104,.000063,97.6835,268.1960,75.6866,284.4425,0,U,60532,999,10377,.1463E-3,.1545E-4,0
LEMUR-2-STELLA,2024-149BT,2026-07-12T18:11:32.160768,15.12343479,.0001212,97.6742,276.3329,111.1523,248.9837,0,U,60533,999,10436,.4346E-3,.7469E-4,0
SATELIOT_2,2024-149BU,2026-07-13T00:54:48.435840,14.96455972,.0001736,97.6825,268.5228,78.3222,281.8194,0,U,60534,999,10383,.96172E-4,.1034E-4,0
NIGHTJAR,2024-149BV,2026-07-13T03:46:47.373600,14.99160551,.0002559,97.6836,270.4994,100.7592,259.3919,0,U,60535,999,14676,.19565E-3,.2322E-4,0
LEMUR-2-MARHISYAM,2024-149BW,2026-07-13T00:18:19.713888,15.11754239,.0002716,97.6885,277.0636,73.2664,286.8864,0,U,60536,999,10438,.39418E-3,.6657E-4,0
SATELIOT_4,2024-149BX,2026-07-12T17:01:30.533952,14.96755981,.0001279,97.6735,267.7102,3.3639,356.7591,0,U,60537,999,10379,.53333E-4,.553E-5,0
PICO-02A021,2024-149BY,2026-07-08T17:33:38.084256,15.03460922,.00032008,97.6747,268.3815,317.3767,42.7209,0,U,60538,999,10297,.19830685E-3,.264E-4,0
ICEYE-X43,2024-149BZ,2026-07-12T18:47:36.027168,14.99783872,.000657,97.6811,270.4043,357.7584,2.3608,0,U,60539,999,10395,.10146E-3,.1196E-4,0
HAWK-10A,2024-149CA,2026-07-12T18:39:51.431040,14.96590356,.0003385,97.6892,269.2496,14.2777,345.8539,0,U,60540,999,10381,.54061E-4,.558E-5,0
UMBRA-09,2024-149CB,2026-07-12T20:01:06.341952,15.18803617,.000182,97.6981,281.4906,204.7083,155.4064,0,U,60541,999,10461,.48173E-3,.9959E-4,0
QPS-SAR-8 (AMATERU-IV),2024-149CC,2026-07-12T19:17:16.561824,15.04385447,.0004104,97.6668,272.7418,51.9220,308.2376,0,U,60542,999,10412,.20141E-3,.275E-4,0
ARCTIC WEATHER SATELLITE,2024-149CD,2026-07-12T17:50:25.771776,14.89801613,.0003024,97.6793,263.4773,54.6107,305.5393,0,U,60543,999,10310,.62163E-4,.543E-5,0
CAPELLA-15 (ACADIA-5),2024-149CE,2026-07-12T06:20:34.008000,14.92404893,.00038053,97.6768,265.5399,352.3525,7.7636,0,U,60544,999,10359,.19496627E-3,.1941E-4,0
HAWK-10B,2024-149CF,2026-07-12T18:39:39.435264,14.96589458,.0005719,97.6811,268.5786,23.3723,336.7757,0,U,60545,999,10381,.46372E-4,.471E-5,0
ICEYE-X39,2024-149CG,2026-07-12T18:14:29.228064,15.00062518,.0006992,97.6785,270.4379,53.3845,306.8020,0,U,60546,999,10395,.20684E-3,.2518E-4,0
UMBRA-10,2024-149CH,2026-07-12T18:25:34.825152,15.18808032,.000152,97.6986,281.4536,166.8110,193.3163,0,U,60547,999,10461,.55518E-3,.11492E-3,0
ICEYE-X33,2024-149CJ,2026-07-13T04:04:27.452352,15.00875982,.000202,97.7342,273.1806,79.7590,280.3862,0,U,60548,999,10410,.2229E-3,.2776E-4,0
ICEYE-X40,2024-149CK,2026-07-12T03:37:52.416768,14.98055622,.00037278,97.6800,269.2441,13.8478,346.2846,0,U,60549,999,10381,.11459305E-3,.1297E-4,0
SATELIOT_1,2024-149CL,2026-07-12T17:47:44.246976,14.98156912,.0005927,97.6733,269.2147,359.4020,0.7194,0,U,60550,999,10389,.91132E-4,.1022E-4,0
BRO-14,2024-149CM,2026-07-12T17:49:05.342016,14.96231446,.0006934,97.6861,269.0607,24.7514,335.4039,0,U,60551,999,10381,.67291E-4,.702E-5,0
SATELIOT_3,2024-149CN,2026-07-12T18:49:14.512800,14.98161521,.000532,97.6823,270.0724,15.1822,344.9560,0,U,60552,999,10391,.50221E-4,.537E-5,0
BRO-15,2024-149CP,2026-07-09T10:45:19.005696,14.96220766,.00085255,97.6798,265.4070,23.7668,336.3946,0,U,60553,999,10333,.69493641E-4,.727E-5,0
UM5-RIBAT,2024-149CQ,2026-07-12T19:14:47.533920,15.01212897,.0000943,97.6612,271.2552,6.1403,353.9832,0,U,60554,999,10403,.12016E-3,.1483E-4,0
